NORAD_CAT_ID,OBJECT_NAME,OBJECT_TYPE,EPOCH,MEAN_MOTION,ECCENTRICITY,INCLINATION,RA_OF_ASC_NODE,ARG_OF_PERICENTER,MEAN_ANOMALY,BSTAR,MEAN_MOTION_DOT,MEAN_MOTION_DDOT,TLE_LINE0,TLE_LINE1,TLE_LINE2,SEMIMAJOR_AXIS,PERIOD,APOGEE,PERIGEE,DECAYED
53395.0,STARLINK-4534,PAYLOAD,2024-03-05 13:31:35,15.0881934,0.0001377,53.2167,179.7503,88.7613,271.3537,-0.0001049,-1.956e-05,0.0,0 STARLINK-4534,1 53395U 22097H   24065.56360619 -.00001956  00000-0 -10490-3 0  9998,2 53395  53.2167 179.7503 0001377  88.7613 271.3537 15.08819340 87680,6917.944,95.439,540.761,538.856,0.0
53395.0,STARLINK-4534,PAYLOAD,2024-03-05 16:42:21,15.08829298,0.0001274,53.2166,179.1567,98.9482,261.1655,9.7572e-06,-1.33e-06,0.0,0 STARLINK-4534,1 53395U 22097H   24065.69607905 -.00000133  00000-0  97572-5 0  9997,2 53395  53.2166 179.1567 0001274  98.9482 261.1655 15.08829298 87216,6917.913,95.438,540.659,538.897,0.0
53395.0,STARLINK-4534,PAYLOAD,2024-03-06 11:46:57,15.08845497,0.000147,53.2171,175.5873,90.4343,269.6818,1.6922e-05,-1.9e-07,0.0,0 STARLINK-4534,1 53395U 22097H   24066.49094899 -.00000019  00000-0  16922-4 0  9990,2 53395  53.2171 175.5873 0001470  90.4343 269.6818 15.08845497 87339,6917.864,95.437,540.746,538.712,0.0
53395.0,STARLINK-4534,PAYLOAD,2024-03-06 13:22:20,15.0884907,0.0001467,53.2166,175.2899,93.8915,266.2245,8.393e-05,1.048e-05,0.0,0 STARLINK-4534,1 53395U 22097H   24066.55718745  .00001048  00000-0  83930-4 0  9995,2 53395  53.2166 175.2899 0001467  93.8915 266.2245 15.08849070 87839,6917.853,95.437,540.733,538.703,0.0
53395.0,STARLINK-4534,PAYLOAD,2024-03-07 00:30:03,15.08839606,0.0001374,53.2177,173.2066,87.2641,272.8508,0.00023518,3.457e-05,0.0,0 STARLINK-4534,1 53395U 22097H   24067.02087445  .00003457  00000-0  23518-3 0  9995,2 53395  53.2177 173.2066 0001374  87.2641 272.8508 15.08839606 87418,6917.882,95.438,540.697,538.796,0.0
53395.0,STARLINK-4534,PAYLOAD,2024-03-07 13:13:09,15.08835159,0.0001479,53.2159,170.8301,97.9256,262.1904,0.00016474,2.335e-05,0.0,0 STARLINK-4534,1 53395U 22097H   24067.55080078  .00002335  00000-0  16474-3 0  9995,2 53395  53.2159 170.8301 0001479  97.9256 262.1904 15.08835159 87982,6917.895,95.438,540.783,538.737,0.0
53395.0,STARLINK-4534,PAYLOAD,2024-03-08 13:03:55,15.08860088,0.0001536,53.2161,166.37,90.3314,269.7854,0.00055531,8.566e-05,0.0,0 STARLINK-4534,1 53395U 22097H   24068.54439258  .00008566  00000-0  55531-3 0  9992,2 53395  53.2161 166.3700 0001536  90.3314 269.7854 15.08860088 87643,6917.819,95.436,540.747,538.621,0.0
53395.0,STARLINK-4534,PAYLOAD,2024-03-09 12:54:42,15.08847559,0.0001481,53.2163,161.9096,91.6809,268.4353,0.00019179,2.766e-05,0.0,0 STARLINK-4534,1 53395U 22097H   24069.53799412  .00002766  00000-0  19179-3 0  9997,2 53395  53.2163 161.9096 0001481  91.6809 268.4353 15.08847559 87790,6917.857,95.437,540.747,538.698,0.0
53395.0,STARLINK-4534,PAYLOAD,2024-03-10 12:45:30,15.08836209,0.0001351,53.2164,157.4509,87.8563,272.2584,9.497e-05,1.224e-05,0.0,0 STARLINK-4534,1 53395U 22097H   24070.53160004  .00001224  00000-0  94970-4 0  9999,2 53395  53.2164 157.4509 0001351  87.8563 272.2584 15.08836209 87946,6917.892,95.438,540.692,538.822,0.0
53395.0,STARLINK-4534,PAYLOAD,2024-03-10 22:17:49,15.08838824,0.0001337,53.2159,155.6668,89.101,271.0135,0.00027722,4.127e-05,0.0,0 STARLINK-4534,1 53395U 22097H   24070.92904174  .00004127  00000-0  27722-3 0  9991,2 53395  53.2159 155.6668 0001337  89.1010 271.0135 15.08838824 88497,6917.884,95.438,540.674,538.824,0.0
53395.0,STARLINK-4534,PAYLOAD,2024-03-11 12:36:17,15.08854457,0.0001239,53.2158,152.9905,88.4822,271.6312,0.00057028,8.803e-05,0.0,0 STARLINK-4534,1 53395U 22097H   24071.52519744  .00008803  00000-0  57028-3 0  9990,2 53395  53.2158 152.9905 0001239  88.4822 271.6312 15.08854457 88093,6917.836,95.437,540.558,538.844,0.0
53395.0,STARLINK-4534,PAYLOAD,2024-03-12 12:27:04,15.0884742,0.0001087,53.2144,148.5312,91.9301,268.1815,0.00018712,2.692e-05,0.0,0 STARLINK-4534,1 53395U 22097H   24072.51879639  .00002692  00000-0  18712-3 0  9999,2 53395  53.2144 148.5312 0001087  91.9301 268.1815 15.08847420 88241,6917.858,95.437,540.475,538.971,0.0
53395.0,STARLINK-4534,PAYLOAD,2024-03-12 14:02:27,15.08847519,0.0001098,53.2143,148.2335,87.6588,272.453,0.00019267,2.78e-05,0.0,0 STARLINK-4534,1 53395U 22097H   24072.58503630  .00002780  00000-0  19267-3 0  9995,2 53395  53.2143 148.2335 0001098  87.6588 272.4530 15.08847519 88749,6917.857,95.437,540.482,538.963,0.0
53395.0,STARLINK-4534,PAYLOAD,2024-03-13 04:20:55,15.08838529,0.0001376,53.2156,145.5563,80.7006,279.4141,3.9456e-05,3.4e-06,0.0,0 STARLINK-4534,1 53395U 22097H   24073.18119924  .00000340  00000-0  39456-4 0  9994,2 53395  53.2156 145.5563 0001376  80.7006 279.4141 15.08838529 88346,6917.885,95.438,540.702,538.798,0.0
53395.0,STARLINK-4534,PAYLOAD,2024-03-13 12:17:51,15.08845681,0.0001424,53.2157,144.0696,78.694,281.4212,0.00011496,1.542e-05,0.0,0 STARLINK-4534,1 53395U 22097H   24073.51239751  .00001542  00000-0  11496-3 0  9990,2 53395  53.2157 144.0696 0001424  78.6940 281.4212 15.08845681 88883,6917.863,95.437,540.713,538.743,0.0
53395.0,STARLINK-4534,PAYLOAD,2024-03-14 04:11:42,15.08844458,0.000165,53.2158,141.0973,64.5517,295.5645,0.00017803,2.547e-05,0.0,0 STARLINK-4534,1 53395U 22097H   24074.17479980  .00002547  00000-0  17803-3 0  9997,2 53395  53.2158 141.0973 0001650  64.5517 295.5645 15.08844458 88982,6917.867,95.437,540.873,538.59,0.0
53395.0,STARLINK-4534,PAYLOAD,2024-03-14 10:33:15,15.08845336,0.0001599,53.2154,139.9076,70.5865,289.53,0.00020228,2.933e-05,0.0,0 STARLINK-4534,1 53395U 22097H   24074.43975849  .00002933  00000-0  20228-3 0  9995,2 53395  53.2154 139.9076 0001599  70.5865 289.5300 15.08845336 88531,6917.864,95.437,540.835,538.623,0.0
53395.0,STARLINK-4534,PAYLOAD,2024-03-15 10:24:02,15.08841364,0.0001351,53.2151,135.4468,81.4206,278.6939,9.9382e-05,1.294e-05,0.0,0 STARLINK-4534,1 53395U 22097H   24075.43335947  .00001294  00000-0  99382-4 0  9992,2 53395  53.2151 135.4468 0001351  81.4206 278.6939 15.08841364 88680,6917.876,95.437,540.676,538.807,0.0
53395.0,STARLINK-4534,PAYLOAD,2024-03-15 13:34:48,15.08845326,0.0001316,53.2145,134.8508,81.1582,278.9559,0.00012528,1.707e-05,0.0,0 STARLINK-4534,1 53395U 22097H   24075.56583700  .00001707  00000-0  12528-3 0  9993,2 53395  53.2145 134.8508 0001316  81.1582 278.9559 15.08845326 89196,6917.864,95.437,540.64,538.819,0.0
53395.0,STARLINK-4534,PAYLOAD,2024-03-16 10:14:49,15.08841722,0.0001533,53.2174,130.9813,92.7487,267.368,-4.8289e-05,-1.056e-05,0.0,0 STARLINK-4534,1 53395U 22097H   24076.42696256 -.00001056  00000-0 -48289-4 0  9993,2 53395  53.2174 130.9813 0001533  92.7487 267.3680 15.08841722 89325,6917.875,95.437,540.801,538.68,0.0
53395.0,STARLINK-4534,PAYLOAD,2024-03-17 10:05:36,15.08836351,0.0001426,53.2169,126.5189,100.3426,259.7727,5.8984e-05,6.51e-06,0.0,0 STARLINK-4534,1 53395U 22097H   24077.42056445  .00000651  00000-0  58984-4 0  9995,2 53395  53.2169 126.5189 0001426 100.3426 259.7727 15.08836351 89471,6917.892,95.438,540.743,538.77,0.0
53395.0,STARLINK-4534,PAYLOAD,2024-03-18 03:34:51,15.08836274,0.0001418,53.2172,123.2535,102.0352,258.0799,8.1386e-05,1.007e-05,0.0,0 STARLINK-4534,1 53395U 22097H   24078.14920629  .00001007  00000-0  81386-4 0  9997,2 53395  53.2172 123.2535 0001418 102.0352 258.0799 15.08836274 89095,6917.892,95.438,540.738,538.776,0.0
53395.0,STARLINK-4534,PAYLOAD,2024-03-18 09:56:23,15.0883994,0.0001436,53.2173,122.0646,101.3231,258.7923,0.00010743,1.422e-05,0.0,0 STARLINK-4534,1 53395U 22097H   24078.41416396  .00001422  00000-0  10743-3 0  9997,2 53395  53.2173 122.0646 0001436 101.3231 258.7923 15.08839940 89622,6917.881,95.438,540.739,538.752,0.0
53395.0,STARLINK-4534,PAYLOAD,2024-03-19 08:11:47,15.08840074,0.0001465,53.217,117.9009,99.265,260.8508,0.00010793,1.43e-05,0.0,0 STARLINK-4534,1 53395U 22097H   24079.34152654  .00001430  00000-0  10793-3 0  9998,2 53395  53.2170 117.9009 0001465  99.2650 260.8508 15.08840074 89271,6917.88,95.438,540.759,538.732,0.0
53395.0,STARLINK-4534,PAYLOAD,2024-03-20 09:37:57,15.0884518,0.0001442,53.2165,113.1426,92.1256,267.9901,8.1433e-05,1.008e-05,0.0,0 STARLINK-4534,1 53395U 22097H   24080.40136434  .00001008  00000-0  81433-4 0  9996,2 53395  53.2165 113.1426 0001442  92.1256 267.9901 15.08845180 89431,6917.865,95.437,540.727,538.732,0.0
53395.0,STARLINK-4534,PAYLOAD,2024-03-21 11:04:07,15.08846636,0.0001561,53.2168,108.3832,99.4999,260.6169,0.00011201,1.495e-05,0.0,0 STARLINK-4534,1 53395U 22097H   24081.46120279  .00001495  00000-0  11201-3 0  9998,2 53395  53.2168 108.3832 0001561  99.4999 260.6169 15.08846636 89597,6917.86,95.437,540.805,538.645,0.0
53395.0,STARLINK-4534,PAYLOAD,2024-03-22 10:54:54,15.08851491,0.0001761,53.2165,103.917,79.392,280.7271,0.00020835,3.03e-05,0.0,0 STARLINK-4534,1 53395U 22097H   24082.45479980  .00003030  00000-0  20835-3 0  9994,2 53395  53.2165 103.9170 0001761  79.3920 280.7271 15.08851491 90238,6917.845,95.437,540.928,538.492,0.0
53395.0,STARLINK-4534,PAYLOAD,2024-03-23 04:24:10,15.08806191,0.0003189,53.2168,100.6471,137.7445,222.3793,0.00078904,0.00012281,0.0,0 STARLINK-4534,1 53395U 22097H   24083.18345894  .00012281  00000-0  78904-3 0  9999,2 53395  53.2168 100.6471 0003189 137.7445 222.3793 15.08806191 89850,6917.984,95.44,542.055,537.643,0.0
53395.0,STARLINK-4534,PAYLOAD,2024-03-23 10:45:42,15.08835563,0.0001616,53.2157,99.4602,109.8003,250.3164,-1.1945e-05,-4.78e-06,0.0,0 STARLINK-4534,1 53395U 22097H   24083.44841094 -.00000478  00000-0 -11945-4 0  9991,2 53395  53.2157  99.4602 0001616 109.8003 250.3164 15.08835563 89894,6917.894,95.438,540.877,538.641,0.0
53395.0,STARLINK-4534,PAYLOAD,2024-03-24 04:14:56,15.08849072,0.0001562,53.2157,96.1898,119.7991,240.3157,3.6337e-05,2.9e-06,0.0,0 STARLINK-4534,1 53395U 22097H   24084.17704502  .00000290  00000-0  36337-4 0  9996,2 53395  53.2157  96.1898 0001562 119.7991 240.3157 15.08849072 90007,6917.853,95.437,540.798,538.637,0.0
